{
  "type": "FeatureCollection",
  "features": [
    {
      "type": "Feature",
      "properties": {
        "norad_id": 38755,
        "name": "SPOT 6",
        "group": "resource",
        "lat": 73.9607335552464,
        "lon": -88.76807214607204,
        "alt_km": 689.9962350557444,
        "timestamp": "2025-12-22T16:55:17.107032+00:00",
        "meta_object_name": "SPOT 6",
        "meta_object_id": "2012-047A",
        "meta_epoch": "2025-12-22T06:34:06.430656",
        "meta_mean_motion": 14.5853921,
        "meta_eccentricity": 0.0001299,
        "meta_inclination": 98.1565,
        "meta_ra_of_asc_node": 60.8826,
        "meta_arg_of_pericenter": 78.5922,
        "meta_mean_anomaly": 281.5423,
        "meta_ephemeris_type": 0,
        "meta_classification_type": "U",
        "meta_norad_cat_id": 38755,
        "meta_element_set_no": 999,
        "meta_rev_at_epoch": 70726,
        "meta_bstar": 3.1870533e-05,
        "meta_mean_motion_dot": 1.03e-06,
        "meta_mean_motion_ddot": 0,
        "tle_line1": "1 38755U 12047A   25356.27368554  .00000103  00000+0  31871-4 0  9990",
        "tle_line2": "2 38755  98.1565  60.8826 0001299  78.5922 281.5423 14.58539210707263"
      },
      "geometry": {
        "type": "Point",
        "coordinates": [
          -88.76807214607204,
          73.9607335552464
        ]
      }
    },
    {
      "type": "Feature",
      "properties": {
        "norad_id": 39019,
        "name": "PLEIADES 1B",
        "group": "resource",
        "lat": 1.900745610614937,
        "lon": 68.92624504481233,
        "alt_km": 700.4496848721965,
        "timestamp": "2025-12-22T16:55:17.107042+00:00",
        "meta_object_name": "PLEIADES 1B",
        "meta_object_id": "2012-068A",
        "meta_epoch": "2025-12-22T05:23:15.353664",
        "meta_mean_motion": 14.58560064,
        "meta_eccentricity": 0.00011518,
        "meta_inclination": 98.1789,
        "meta_ra_of_asc_node": 68.7268,
        "meta_arg_of_pericenter": 85.8355,
        "meta_mean_anomaly": 274.2976,
        "meta_ephemeris_type": 0,
        "meta_classification_type": "U",
        "meta_norad_cat_id": 39019,
        "meta_element_set_no": 999,
        "meta_rev_at_epoch": 69505,
        "meta_bstar": 3.8126112e-05,
        "meta_mean_motion_dot": 1.32e-06,
        "meta_mean_motion_ddot": 0,
        "tle_line1": "1 39019U 12068A   25356.22448326  .00000132  00000+0  38126-4 0  9990",
        "tle_line2": "2 39019  98.1789  68.7268 0001151  85.8355 274.2976 14.58560064695056"
      },
      "geometry": {
        "type": "Point",
        "coordinates": [
          68.92624504481233,
          1.900745610614937
        ]
      }
    },
    {
      "type": "Feature",
      "properties": {
        "norad_id": 39030,
        "name": "GOKTURK 2",
        "group": "resource",
        "lat": 79.78818046706874,
        "lon": 66.45043663867455,
        "alt_km": 635.8834820076581,
        "timestamp": "2025-12-22T16:55:17.107053+00:00",
        "meta_object_name": "GOKTURK 2",
        "meta_object_id": "2012-073A",
        "meta_epoch": "2025-12-22T06:43:04.889280",
        "meta_mean_motion": 14.7530357,
        "meta_eccentricity": 0.00013374,
        "meta_inclination": 97.6884,
        "meta_ra_of_asc_node": 197.4639,
        "meta_arg_of_pericenter": 106.8796,
        "meta_mean_anomaly": 253.2561,
        "meta_ephemeris_type": 0,
        "meta_classification_type": "U",
        "meta_norad_cat_id": 39030,
        "meta_element_set_no": 999,
        "meta_rev_at_epoch": 69842,
        "meta_bstar": 9.971886e-05,
        "meta_mean_motion_dot": 6.28e-06,
        "meta_mean_motion_ddot": 0,
        "tle_line1": "1 39030U 12073A   25356.27991770  .00000628  00000+0  99719-4 0  9995",
        "tle_line2": "2 39030  97.6884 197.4639 0001337 106.8796 253.2561 14.75303570698427"
      },
      "geometry": {
        "type": "Point",
        "coordinates": [
          66.45043663867455,
          79.78818046706874
        ]
      }
    },
    {
      "type": "Feature",
      "properties": {
        "norad_id": 39084,
        "name": "LANDSAT 8",
        "group": "resource",
        "lat": 58.57894532780063,
        "lon": -101.70620966679736,
        "alt_km": 696.198164324268,
        "timestamp": "2025-12-22T16:55:17.107063+00:00",
        "meta_object_name": "LANDSAT 8",
        "meta_object_id": "2013-008A",
        "meta_epoch": "2025-12-22T06:28:57.154080",
        "meta_mean_motion": 14.57112022,
        "meta_eccentricity": 0.00010626,
        "meta_inclination": 98.2059,
        "meta_ra_of_asc_node": 64.2024,
        "meta_arg_of_pericenter": 91.6064,
        "meta_mean_anomaly": 268.5256,
        "meta_ephemeris_type": 0,
        "meta_classification_type": "U",
        "meta_norad_cat_id": 39084,
        "meta_element_set_no": 999,
        "meta_rev_at_epoch": 67213,
        "meta_bstar": 0.00010370739,
        "meta_mean_motion_dot": 4.22e-06,
        "meta_mean_motion_ddot": 0,
        "tle_line1": "1 39084U 13008A   25356.27010595  .00000422  00000+0  10371-3 0  9998",
        "tle_line2": "2 39084  98.2059  64.2024 0001062  91.6064 268.5256 14.57112022672130"
      },
      "geometry": {
        "type": "Point",
        "coordinates": [
          -101.70620966679736,
          58.57894532780063
        ]
      }
    },
    {
      "type": "Feature",
      "properties": {
        "norad_id": 39086,
        "name": "SARAL",
        "group": "resource",
        "lat": -45.63555599860475,
        "lon": -170.64651215915077,
        "alt_km": 790.7528354571423,
        "timestamp": "2025-12-22T16:55:17.107074+00:00",
        "meta_object_name": "SARAL",
        "meta_object_id": "2013-009A",
        "meta_epoch": "2025-12-22T05:24:17.356896",
        "meta_mean_motion": 14.32760226,
        "meta_eccentricity": 0.00029631,
        "meta_inclination": 98.5502,
        "meta_ra_of_asc_node": 180.0318,
        "meta_arg_of_pericenter": 90.8062,
        "meta_mean_anomaly": 269.3461,
        "meta_ephemeris_type": 0,
        "meta_classification_type": "U",
        "meta_norad_cat_id": 39086,
        "meta_element_set_no": 999,
        "meta_rev_at_epoch": 67026,
        "meta_bstar": 5.9969784e-05,
        "meta_mean_motion_dot": 1.2e-06,
        "meta_mean_motion_ddot": 0,
        "tle_line1": "1 39086U 13009A   25356.22520089  .00000120  00000+0  59970-4 0  9994",
        "tle_line2": "2 39086  98.5502 180.0318 0002963  90.8062 269.3461 14.32760226670268"
      },
      "geometry": {
        "type": "Point",
        "coordinates": [
          -170.64651215915077,
          -45.63555599860475
        ]
      }
    },
    {
      "type": "Feature",
      "properties": {
        "norad_id": 39150,
        "name": "GAOFEN-1",
        "group": "resource",
        "lat": -38.67360246432103,
        "lon": -119.21896840291971,
        "alt_km": 650.495916461754,
        "timestamp": "2025-12-22T16:55:17.107085+00:00",
        "meta_object_name": "GAOFEN-1",
        "meta_object_id": "2013-018A",
        "meta_epoch": "2025-12-22T06:10:31.808640",
        "meta_mean_motion": 14.7649529,
        "meta_eccentricity": 0.00184607,
        "meta_inclination": 97.9321,
        "meta_ra_of_asc_node": 66.7486,
        "meta_arg_of_pericenter": 114.139,
        "meta_mean_anomaly": 246.1753,
        "meta_ephemeris_type": 0,
        "meta_classification_type": "U",
        "meta_norad_cat_id": 39150,
        "meta_element_set_no": 999,
        "meta_rev_at_epoch": 68213,
        "meta_bstar": 9.1652708e-05,
        "meta_mean_motion_dot": 5.89e-06,
        "meta_mean_motion_ddot": 0,
        "tle_line1": "1 39150U 13018A   25356.25731260  .00000589  00000+0  91653-4 0  9997",
        "tle_line2": "2 39150  97.9321  66.7486 0018460 114.1390 246.1753 14.76495290682131"
      },
      "geometry": {
        "type": "Point",
        "coordinates": [
          -119.21896840291971,
          -38.67360246432103
        ]
      }
    },
    {
      "type": "Feature",
      "properties": {
        "norad_id": 39160,
        "name": "VNREDSAT 1",
        "group": "resource",
        "lat": -45.558414305205275,
        "lon": -136.54717523784555,
        "alt_km": 684.7361889379963,
        "timestamp": "2025-12-22T16:55:17.107096+00:00",
        "meta_object_name": "VNREDSAT 1",
        "meta_object_id": "2013-021B",
        "meta_epoch": "2025-12-22T06:03:25.551648",
        "meta_mean_motion": 14.64934743,
        "meta_eccentricity": 0.00012008,
        "meta_inclination": 97.9363,
        "meta_ra_of_asc_node": 51.1939,
        "meta_arg_of_pericenter": 82.041,
        "meta_mean_anomaly": 278.0929,
        "meta_ephemeris_type": 0,
        "meta_classification_type": "U",
        "meta_norad_cat_id": 39160,
        "meta_element_set_no": 999,
        "meta_rev_at_epoch": 67438,
        "meta_bstar": 5.2358278e-05,
        "meta_mean_motion_dot": 2.35e-06,
        "meta_mean_motion_ddot": 0,
        "tle_line1": "1 39160U 13021B   25356.25237907  .00000235  00000+0  52358-4 0  9998",
        "tle_line2": "2 39160  97.9363  51.1939 0001200  82.0410 278.0929 14.64934743674384"
      },
      "geometry": {
        "type": "Point",
        "coordinates": [
          -136.54717523784555,
          -45.558414305205275
        ]
      }
    }
  ]
}